55821,ONEWEB-0661,2023,109.55,148.0,+,87.9,Active,1,LEO,USA,UK,Commercial,Communications,Falcon,1 55821U 23029AB  24005.76709689 -.00000240  00000+0 -68213-3 0  9990,2 55821  87.8988 107.5793 0001694 125.4453 234.6835 13.14504527 42017,13.14504527,0.0001694,LEO
55822,ONEWEB-0662,2023,109.55,148.0,+,87.9,Active,1,LEO,USA,UK,Commercial,Communications,Falcon,1 55822U 23029AC  24005.80199185  .00000023  00000+0  27420-4 0  9993,2 55822  87.8986 107.5802 0002042 110.6696 249.4653 13.14504282 42065,13.14504282,0.0002042,LEO
55823,ONEWEB-0663,2023,109.03,148.0,+,87.92,Active,1,LEO,USA,UK,Commercial,Communications,Falcon,1 55823U 23029AD  24005.79794970  .00000021  00000+0  20528-4 0  9995,2 55823  87.9199  92.3041 0002022 117.4206 242.7133 13.20773210 43212,13.2077321,0.0002022,LEO
55824,ONEWEB-0664,2023,109.03,148.0,+,87.92,Active,1,LEO,USA,UK,Commercial,Communications,Falcon,1 55824U 23029AE  24005.79162281 -.00003510  00000+0 -86660-2 0  9995,2 55824  87.9199  92.3175 0001403 122.2032 237.9237 13.20789218 43210,13.20789218,0.0001403,LEO
55825,ONEWEB-0665,2023,109.55,148.0,+,87.9,Active,1,LEO,USA,UK,Commercial,Communications,Falcon,1 55825U 23029AF  24005.84004190 -.00000206  00000+0 -59112-3 0  9998,2 55825  87.8988 107.5401 0001815 120.0174 240.1136 13.14501444 42047,13.14501444,0.0001815,LEO
55826,ONEWEB-0666,2023,109.03,148.0,+,87.92,Active,1,LEO,USA,UK,Commercial,Communications,Falcon,1 55826U 23029AG  24006.16408649  .00000070  00000+0  14016-3 0  9993,2 55826  87.9199  92.2344 0001614  87.4726 272.6592 13.20769447 43958,13.20769447,0.0001614,LEO
55827,ONEWEB-0667,2023,109.03,148.0,+,87.92,Active,1,LEO,USA,UK,Commercial,Communications,Falcon,1 55827U 23029AH  24006.15777183 -.00003207  00000+0 -79212-2 0  9990,2 55827  87.9195  92.1701 0001577 117.9359 242.1934 13.20787241 43943,13.20787241,0.0001577,LEO
55828,ONEWEB-0669,2023,109.03,148.0,+,87.92,Active,1,LEO,USA,UK,Commercial,Communications,Falcon,1 55828U 23029AJ  24006.15303968 -.00000375  00000+0 -95501-3 0  9990,2 55828  87.9199  92.2090 0001017  86.9815 273.1435 13.20772626 43942,13.20772626,0.0001017,LEO
